[{"OBJECT_NAME":"STARLINK-4002","OBJECT_ID":"2022-052Q","EPOCH":"2026-03-08T23:29:18.654432","MEAN_MOTION":15.08837626,"ECCENTRICITY":0.00012561,"INCLINATION":53.2165,"RA_OF_ASC_NODE":282.3132,"ARG_OF_PERICENTER":90.0327,"MEAN_ANOMALY":270.081,"EPHEMERIS_TYPE":0,"CLASSIFICATION_TYPE":"U","NORAD_CAT_ID":52612,"ELEMENT_SET_NO":999,"REV_AT_EPOCH":21075,"BSTAR":4.0573085e-5,"MEAN_MOTION_DOT":3.58e-6,"MEAN_MOTION_DDOT":0},{"OBJECT_NAME":"FENGYUN 1C DEB","OBJECT_ID":"1999-025AEH","EPOCH":"2026-03-09T22:48:21.206880","MEAN_MOTION":14.8573293,"ECCENTRICITY":0.01077809,"INCLINATION":98.8499,"RA_OF_ASC_NODE":243.2798,"ARG_OF_PERICENTER":197.684,"MEAN_ANOMALY":322.9923,"EPHEMERIS_TYPE":0,"CLASSIFICATION_TYPE":"U","NORAD_CAT_ID":30418,"ELEMENT_SET_NO":999,"REV_AT_EPOCH":1886,"BSTAR":0.0011748472,"MEAN_MOTION_DOT":0.00011272,"MEAN_MOTION_DDOT":0}]
